NORAD_CAT_ID,OBJECT_NAME,OBJECT_TYPE,EPOCH,MEAN_MOTION,ECCENTRICITY,INCLINATION,RA_OF_ASC_NODE,ARG_OF_PERICENTER,MEAN_ANOMALY,BSTAR,MEAN_MOTION_DOT,MEAN_MOTION_DDOT,TLE_LINE0,TLE_LINE1,TLE_LINE2,SEMIMAJOR_AXIS,PERIOD,APOGEE,PERIGEE,DECAYED
55296.0,STARLINK-5285,PAYLOAD,2023-10-04 14:15:13,14.98330511,0.0003052,69.9979,101.0258,269.7988,90.2821,5.9618e-05,6.18e-06,0.0,0 STARLINK-5285,1 55296U 23010AD  23277.59390423  .00000618  00000-0  59618-4 0  9997,2 55296  69.9979 101.0258 0003052 269.7988  90.2821 14.98330511 41275,6950.191,96.107,574.178,569.935,0.0
55296.0,STARLINK-5285,PAYLOAD,2023-10-04 19:03:37,14.98332648,0.0003076,69.9981,100.521,270.2813,89.7994,5.0871e-05,5.14e-06,0.0,0 STARLINK-5285,1 55296U 23010AD  23277.79418302  .00000514  00000-0  50871-4 0  9993,2 55296  69.9981 100.5210 0003076 270.2813  89.7994 14.98332648 40119,6950.185,96.107,574.188,569.912,0.0
55296.0,STARLINK-5285,PAYLOAD,2023-10-04 20:39:45,14.98332726,0.0003075,69.9981,100.3527,270.2999,89.7808,5.1007e-05,5.16e-06,0.0,0 STARLINK-5285,1 55296U 23010AD  23277.86094286  .00000516  00000-0  51007-4 0  9996,2 55296  69.9981 100.3527 0003075 270.2999  89.7808 14.98332726 41316,6950.184,96.107,574.187,569.912,0.0
55296.0,STARLINK-5285,PAYLOAD,2023-10-05 14:17:14,14.98327939,0.0003032,69.9984,98.5009,270.4084,89.6728,1.0648e-05,3.4e-07,0.0,0 STARLINK-5285,1 55296U 23010AD  23278.59530672  .00000034  00000-0  10648-4 0  9992,2 55296  69.9984  98.5009 0003032 270.4084  89.6728 14.98327939 41424,6950.199,96.107,574.172,569.957,0.0
55296.0,STARLINK-5285,PAYLOAD,2023-10-05 20:41:46,14.98328906,0.0003031,69.9984,97.8275,270.5884,89.4928,1.483e-05,8.4e-07,0.0,0 STARLINK-5285,1 55296U 23010AD  23278.86234611  .00000084  00000-0  14830-4 0  9998,2 55296  69.9984  97.8275 0003031 270.5884  89.4928 14.98328906 40276,6950.196,96.107,574.168,569.955,0.0
55296.0,STARLINK-5285,PAYLOAD,2023-10-06 12:43:07,14.98331965,0.0002977,69.9987,96.1442,270.6543,89.4275,-3.6218e-05,-5.25e-06,0.0,0 STARLINK-5285,1 55296U 23010AD  23279.52994542 -.00000525  00000-0 -36218-4 0  9994,2 55296  69.9987  96.1442 0002977 270.6543  89.4275 14.98331965 41565,6950.187,96.107,574.121,569.983,0.0
55296.0,STARLINK-5285,PAYLOAD,2023-10-06 20:43:47,14.98332323,0.0002952,69.9987,95.3028,270.2976,89.7845,-2.0358e-05,-3.36e-06,0.0,0 STARLINK-5285,1 55296U 23010AD  23279.86374426 -.00000336  00000-0 -20358-4 0  9992,2 55296  69.9987  95.3028 0002952 270.2976  89.7845 14.98332323 40424,6950.186,96.107,574.102,569.999,0.0
55296.0,STARLINK-5285,PAYLOAD,2023-10-06 22:19:55,14.98332769,0.0002954,69.9988,95.1344,270.44,89.642,-1.4802e-05,-2.7e-06,0.0,0 STARLINK-5285,1 55296U 23010AD  23279.93050372 -.00000270  00000-0 -14802-4 0  9995,2 55296  69.9988  95.1344 0002954 270.4400  89.6420 14.98332769 41625,6950.184,96.107,574.102,569.996,0.0
55296.0,STARLINK-5285,PAYLOAD,2023-10-07 14:21:16,14.98330314,0.0002981,69.9986,93.4509,269.9775,90.1043,1.2394e-05,5.5e-07,0.0,0 STARLINK-5285,1 55296U 23010AD  23280.59810378  .00000055  00000-0  12394-4 0  9992,2 55296  69.9986  93.4509 0002981 269.9775  90.1043 14.98330314 41728,6950.192,96.107,574.129,569.985,0.0
55296.0,STARLINK-5285,PAYLOAD,2023-10-07 20:45:48,14.98330956,0.0002969,69.9988,92.7776,269.8753,90.2066,1.9395e-05,1.38e-06,0.0,0 STARLINK-5285,1 55296U 23010AD  23280.86514300  .00000138  00000-0  19395-4 0  9998,2 55296  69.9988  92.7776 0002969 269.8753  90.2066 14.98330956 40579,6950.19,96.107,574.118,569.991,0.0
55296.0,STARLINK-5285,PAYLOAD,2023-10-08 12:47:08,14.98330956,0.0002971,69.9989,91.0942,270.3501,89.7318,2.9319e-06,-5.8e-07,0.0,0 STARLINK-5285,1 55296U 23010AD  23281.53274298 -.00000058  00000-0  29319-5 0  9992,2 55296  69.9989  91.0942 0002971 270.3501  89.7318 14.98330956 41864,6950.19,96.107,574.12,569.99,0.0
55296.0,STARLINK-5285,PAYLOAD,2023-10-08 20:47:49,14.98331377,0.0003011,69.9988,90.2527,269.7008,90.3806,6.4833e-06,-1.6e-07,0.0,0 STARLINK-5285,1 55296U 23010AD  23281.86654206 -.00000016  00000-0  64833-5 0  9993,2 55296  69.9988  90.2527 0003011 269.7008  90.3806 14.98331377 41917,6950.189,96.107,574.146,569.961,0.0
55296.0,STARLINK-5285,PAYLOAD,2023-10-09 12:49:09,14.98329521,0.0002988,69.999,88.5696,269.6809,90.4007,-1.2106e-05,-2.37e-06,0.0,0 STARLINK-5285,1 55296U 23010AD  23282.53414342 -.00000237  00000-0 -12106-4 0  9994,2 55296  69.9990  88.5696 0002988 269.6809  90.4007 14.98329521 42011,6950.194,96.107,574.136,569.983,0.0
55296.0,STARLINK-5285,PAYLOAD,2023-10-09 20:49:50,14.9833073,0.0003022,69.9989,87.7278,270.5424,89.5389,-1.2504e-05,-2.42e-06,0.0,0 STARLINK-5285,1 55296U 23010AD  23282.86794257 -.00000242  00000-0 -12504-4 0  9994,2 55296  69.9989  87.7278 0003022 270.5424  89.5389 14.98330730 42061,6950.191,96.107,574.156,569.955,0.0
55296.0,STARLINK-5285,PAYLOAD,2023-10-09 22:25:58,14.98331591,0.0003042,69.9988,87.5591,270.5495,89.5315,-3.6238e-06,-1.36e-06,0.0,0 STARLINK-5285,1 55296U 23010AD  23282.93470167 -.00000136  00000-0 -36238-5 0  9996,2 55296  69.9988  87.5591 0003042 270.5495  89.5315 14.98331591 40889,6950.188,96.107,574.167,569.939,0.0
55296.0,STARLINK-5285,PAYLOAD,2023-10-10 12:51:10,14.98330441,0.0003046,69.9987,86.0441,270.4844,89.5966,5.4274e-06,-2.8e-07,0.0,0 STARLINK-5285,1 55296U 23010AD  23283.53554151 -.00000028  00000-0  54274-5 0  9998,2 55296  69.9987  86.0441 0003046 270.4844  89.5966 14.98330441 42165,6950.192,96.107,574.174,569.939,0.0
55296.0,STARLINK-5285,PAYLOAD,2023-10-10 20:51:50,14.98335132,0.0003072,69.9989,85.2023,270.5788,89.5019,2.8282e-05,2.44e-06,0.0,0 STARLINK-5285,1 55296U 23010AD  23283.86933732  .00000244  00000-0  28282-4 0  9998,2 55296  69.9989  85.2023 0003072 270.5788  89.5019 14.98335132 42218,6950.177,96.107,574.177,569.907,0.0
55296.0,STARLINK-5285,PAYLOAD,2023-10-11 12:53:11,14.98328483,0.000303,69.9992,83.5189,271.0116,89.0696,-1.0102e-05,-2.14e-06,0.0,0 STARLINK-5285,1 55296U 23010AD  23284.53694211 -.00000214  00000-0 -10102-4 0  9990,2 55296  69.9992  83.5189 0003030 271.0116  89.0696 14.98328483 41127,6950.198,96.107,574.168,569.957,0.0
55296.0,STARLINK-5285,PAYLOAD,2023-10-12 12:55:12,14.98333806,0.0003059,69.9996,80.9948,270.0235,90.0573,1.1679e-06,-7.9e-07,0.0,0 STARLINK-5285,1 55296U 23010AD  23285.53833802 -.00000079  00000-0  11679-5 0  9991,2 55296  69.9996  80.9948 0003059 270.0235  90.0573 14.98333806 42466,6950.181,96.107,574.172,569.92,0.0
55296.0,STARLINK-5285,PAYLOAD,2023-10-12 19:19:44,14.98336068,0.0003024,69.9997,80.3216,269.7725,90.3087,2.7754e-05,2.38e-06,0.0,0 STARLINK-5285,1 55296U 23010AD  23285.80537505  .00000238  00000-0  27754-4 0  9998,2 55296  69.9997  80.3216 0003024 269.7725  90.3087 14.98336068 41319,6950.174,96.107,574.141,569.937,0.0
55296.0,STARLINK-5285,PAYLOAD,2023-10-12 20:55:52,14.98336346,0.0003025,69.9997,80.1533,269.8301,90.2512,3.0433e-05,2.7e-06,0.0,0 STARLINK-5285,1 55296U 23010AD  23285.87213453  .00000270  00000-0  30433-4 0  9992,2 55296  69.9997  80.1533 0003025 269.8301  90.2512 14.98336346 42515,6950.173,96.107,574.141,569.936,0.0
55296.0,STARLINK-5285,PAYLOAD,2023-10-13 12:57:13,14.98327046,0.0002969,69.9999,78.47,271.0891,88.9927,-1.4119e-05,-2.61e-06,0.0,0 STARLINK-5285,1 55296U 23010AD  23286.53974112 -.00000261  00000-0 -14119-4 0  9997,2 55296  69.9999  78.4700 0002969 271.0891  88.9927 14.98327046 41428,6950.202,96.107,574.131,570.004,0.0
55296.0,STARLINK-5285,PAYLOAD,2023-10-13 19:21:45,14.98329869,0.0002944,70.0,77.7969,270.3903,89.6918,1.6448e-05,1.03e-06,0.0,0 STARLINK-5285,1 55296U 23010AD  23286.80677855  .00000103  00000-0  16448-4 0  9991,2 55296  70.0000  77.7969 0002944 270.3903  89.6918 14.98329869 42651,6950.193,96.107,574.104,570.012,0.0
55296.0,STARLINK-5285,PAYLOAD,2023-10-14 12:59:14,14.98330625,0.0002855,70.0002,75.9453,268.9716,91.1116,-4.8397e-05,-6.7e-06,0.0,0 STARLINK-5285,1 55296U 23010AD  23287.54113956 -.00000670  00000-0 -48397-4 0  9999,2 55296  70.0002  75.9453 0002855 268.9716  91.1116 14.98330625 42769,6950.191,96.107,574.04,570.072,0.0
55296.0,STARLINK-5285,PAYLOAD,2023-10-14 19:23:46,14.98327788,0.000286,70.0004,75.272,268.6738,91.4093,-3.8316e-05,-5.5e-06,0.0,0 STARLINK-5285,1 55296U 23010AD  23287.80818090 -.00000550  00000-0 -38316-4 0  9996,2 55296  70.0004  75.2720 0002860 268.6738  91.4093 14.98327788 41614,6950.2,96.107,574.052,570.077,0.0
55296.0,STARLINK-5285,PAYLOAD,2023-10-15 14:37:23,14.98325969,0.0002989,70.0001,73.2519,267.7413,92.3403,-2.0052e-06,-1.17e-06,0.0,0 STARLINK-5285,1 55296U 23010AD  23288.60930133 -.00000117  00000-0 -20052-5 0  9996,2 55296  70.0001  73.2519 0002989 267.7413  92.3403 14.98325969 42926,6950.205,96.107,574.148,569.993,0.0
55296.0,STARLINK-5285,PAYLOAD,2023-10-15 19:25:47,14.98331098,0.000306,70.0,72.7461,268.2953,91.7855,3.6032e-05,3.37e-06,0.0,0 STARLINK-5285,1 55296U 23010AD  23288.80957740  .00000337  00000-0  36032-4 0  9997,2 55296  70.0000  72.7461 0003060 268.2953  91.7855 14.98331098 41766,6950.189,96.107,574.181,569.928,0.0
55296.0,STARLINK-5285,PAYLOAD,2023-10-16 03:26:28,14.98327827,0.0002883,70.0009,71.9045,277.3305,82.7526,-3.4855e-05,-5.09e-06,0.0,0 STARLINK-5285,1 55296U 23010AD  23289.14338267 -.00000509  00000-0 -34855-4 0  9996,2 55296  70.0009  71.9045 0002883 277.3305  82.7526 14.98327827 41814,6950.2,96.107,574.068,570.061,0.0
55296.0,STARLINK-5285,PAYLOAD,2023-10-16 14:39:24,14.98326857,0.0003107,70.0,70.7266,269.894,90.1862,4.5892e-06,-3.8e-07,0.0,0 STARLINK-5285,1 55296U 23010AD  23289.61070166 -.00000038  00000-0  45892-5 0  9999,2 55296  70.0000  70.7266 0003107 269.8940  90.1862 14.98326857 43076,6950.203,96.107,574.227,569.908,0.0
55296.0,STARLINK-5285,PAYLOAD,2023-10-16 16:15:32,14.98326505,0.0003074,69.9999,70.5583,268.7455,91.3352,1.664e-05,1.06e-06,0.0,0 STARLINK-5285,1 55296U 23010AD  23289.67746163  .00000106  00000-0  16640-4 0  9995,2 55296  69.9999  70.5583 0003074 268.7455  91.3352 14.98326505 43080,6950.204,96.107,574.205,569.932,0.0
